NORAD_CAT_ID,OBJECT_NAME,OBJECT_TYPE,EPOCH,MEAN_MOTION,ECCENTRICITY,INCLINATION,RA_OF_ASC_NODE,ARG_OF_PERICENTER,MEAN_ANOMALY,BSTAR,MEAN_MOTION_DOT,MEAN_MOTION_DDOT,TLE_LINE0,TLE_LINE1,TLE_LINE2,SEMIMAJOR_AXIS,PERIOD,APOGEE,PERIGEE,DECAYED
49758.0,STARLINK-3194,PAYLOAD,2023-11-20 16:53:53,15.08850561,0.0001483,53.2177,309.9614,97.2225,262.8936,2.1935e-05,6.1e-07,0.0,0 STARLINK-3194,1 49758U 21115AL  23324.70409180  .00000061  00000-0  21935-4 0  9997,2 49758  53.2177 309.9614 0001483  97.2225 262.8936 15.08850561108863,6917.848,95.437,540.739,538.687,0.0
49758.0,STARLINK-3194,PAYLOAD,2023-11-21 04:01:35,15.08845172,0.0001496,53.2181,307.8806,96.4261,263.6902,4.0747e-05,3.61e-06,0.0,0 STARLINK-3194,1 49758U 21115AL  23325.16777437  .00000361  00000-0  40747-4 0  9996,2 49758  53.2181 307.8806 0001496  96.4261 263.6902 15.08845172110040,6917.865,95.437,540.764,538.695,0.0
49758.0,STARLINK-3194,PAYLOAD,2023-11-21 05:36:58,15.08847908,0.0001526,53.2177,307.583,98.1655,261.951,5.619e-05,6.07e-06,0.0,0 STARLINK-3194,1 49758U 21115AL  23325.23401216  .00000607  00000-0  56190-4 0  9995,2 49758  53.2177 307.5830 0001526  98.1655 261.9510 15.08847908108940,6917.856,95.437,540.777,538.666,0.0
49758.0,STARLINK-3194,PAYLOAD,2023-11-22 08:38:32,15.08844696,0.0001447,53.2182,302.5269,106.3121,253.803,8.9902e-05,1.143e-05,0.0,0 STARLINK-3194,1 49758U 21115AL  23326.36009280  .00001143  00000-0  89902-4 0  9998,2 49758  53.2182 302.5269 0001447 106.3121 253.8030 15.08844696110221,6917.866,95.437,540.732,538.73,0.0
49758.0,STARLINK-3194,PAYLOAD,2023-11-23 03:43:09,15.08840715,0.0001567,53.2173,298.9572,109.5686,250.5475,7.789e-05,9.52e-06,0.0,0 STARLINK-3194,1 49758U 21115AL  23327.15497582  .00000952  00000-0  77890-4 0  9992,2 49758  53.2173 298.9572 0001567 109.5686 250.5475 15.08840715110348,6917.878,95.438,540.827,538.659,0.0
49758.0,STARLINK-3194,PAYLOAD,2023-11-23 08:29:18,15.0884637,0.0001571,53.2182,298.0644,108.6044,251.5118,0.00011297,1.511e-05,0.0,0 STARLINK-3194,1 49758U 21115AL  23327.35369136  .00001511  00000-0  11297-3 0  9997,2 49758  53.2182 298.0644 0001571 108.6044 251.5118 15.08846370109269,6917.861,95.437,540.813,538.639,0.0
49758.0,STARLINK-3194,PAYLOAD,2023-11-24 03:33:57,15.08832087,0.0001725,53.2163,294.4897,119.4942,240.6223,-8.9217e-05,-1.707e-05,0.0,0 STARLINK-3194,1 49758U 21115AL  23328.14858294 -.00001707  00000-0 -89217-4 0  9990,2 49758  53.2163 294.4897 0001725 119.4942 240.6223 15.08832087110499,6917.905,95.438,540.963,538.576,0.0
49758.0,STARLINK-3194,PAYLOAD,2023-11-24 08:20:07,15.08832983,0.0001592,53.2166,293.604,107.1853,252.9314,-1.3054e-05,-4.96e-06,0.0,0 STARLINK-3194,1 49758U 21115AL  23328.34730576 -.00000496  00000-0 -13054-4 0  9994,2 49758  53.2166 293.6040 0001592 107.1853 252.9314 15.08832983109412,6917.902,95.438,540.868,538.666,0.0
49758.0,STARLINK-3194,PAYLOAD,2023-11-25 03:24:44,15.08847452,0.000152,53.2166,290.0351,106.9983,253.1176,0.00017196,2.45e-05,0.0,0 STARLINK-3194,1 49758U 21115AL  23329.14218274  .00002450  00000-0  17196-3 0  9999,2 49758  53.2166 290.0351 0001520 106.9983 253.1176 15.08847452110643,6917.858,95.437,540.774,538.671,0.0
49758.0,STARLINK-3194,PAYLOAD,2023-11-25 06:35:30,15.08852525,0.0001578,53.216,289.4401,109.6201,250.4961,0.00058258,8.999e-05,0.0,0 STARLINK-3194,1 49758U 21115AL  23329.27466417  .00008999  00000-0  58258-3 0  9995,2 49758  53.2160 289.4401 0001578 109.6201 250.4961 15.08852525109558,6917.842,95.437,540.799,538.615,0.0
49758.0,STARLINK-3194,PAYLOAD,2023-11-26 03:15:30,15.08874267,0.0001778,53.2157,285.5753,130.4183,229.6964,0.0009294,0.00014548,0.0,0 STARLINK-3194,1 49758U 21115AL  23330.13577381  .00014548  00000-0  92940-3 0  9998,2 49758  53.2157 285.5753 0001778 130.4183 229.6964 15.08874267110790,6917.776,95.435,540.871,538.411,0.0
49758.0,STARLINK-3194,PAYLOAD,2023-11-26 06:26:17,15.08881396,0.0001612,53.2161,284.9796,106.9517,253.1652,0.0011881,0.00018693,0.0,0 STARLINK-3194,1 49758U 21115AL  23330.26825275  .00018693  00000-0  11881-2 0  9999,2 49758  53.2161 284.9796 0001612 106.9517 253.1652 15.08881396109707,6917.754,95.435,540.734,538.504,0.0
49758.0,STARLINK-3194,PAYLOAD,2023-11-27 03:06:19,15.08808946,0.0001848,53.2174,281.1108,72.4375,287.6818,0.00054323,8.361e-05,0.0,0 STARLINK-3194,1 49758U 21115AL  23331.12939628  .00008361  00000-0  54323-3 0  9993,2 49758  53.2174 281.1108 0001848  72.4375 287.6818 15.08808946110941,6917.975,95.44,541.119,538.562,0.0
49758.0,STARLINK-3194,PAYLOAD,2023-11-28 01:21:43,15.08869844,0.0001798,53.2169,276.9552,67.0267,293.0914,0.0018952,0.00030028,0.0,0 STARLINK-3194,1 49758U 21115AL  23332.05675564  .00030028  00000-0  18952-2 0  9994,2 49758  53.2169 276.9552 0001798  67.0267 293.0914 15.08869844111082,6917.789,95.436,540.898,538.41,0.0
49758.0,STARLINK-3194,PAYLOAD,2023-11-29 02:47:53,15.08863922,0.0001405,53.2175,272.1916,106.4423,253.6724,0.0010531,0.00016523,0.0,0 STARLINK-3194,1 49758U 21115AL  23333.11658650  .00016523  00000-0  10531-2 0  9998,2 49758  53.2175 272.1916 0001405 106.4423 253.6724 15.08863922111248,6917.807,95.436,540.644,538.7,0.0
49758.0,STARLINK-3194,PAYLOAD,2023-11-30 02:38:40,15.08841312,0.0001827,53.2182,267.7328,102.6537,257.466,0.0010299,0.00016141,0.0,0 STARLINK-3194,1 49758U 21115AL  23334.11019339  .00016141  00000-0  10299-2 0  9991,2 49758  53.2182 267.7328 0001827 102.6537 257.4660 15.08841312111391,6917.876,95.437,541.005,538.477,0.0
49758.0,STARLINK-3194,PAYLOAD,2023-12-01 02:29:28,15.08841755,0.0001499,53.2176,263.2739,98.9134,261.2028,0.0010958,0.00017195,0.0,0 STARLINK-3194,1 49758U 21115AL  23335.10379892  .00017195  00000-0  10958-2 0  9996,2 49758  53.2176 263.2739 0001499  98.9134 261.2028 15.08841755111545,6917.875,95.437,540.777,538.703,0.0
49758.0,STARLINK-3194,PAYLOAD,2023-12-02 00:44:51,15.08878097,0.000189,53.2176,259.1154,117.0855,243.033,0.0014701,0.00023211,0.0,0 STARLINK-3194,1 49758U 21115AL  23336.03114744  .00023211  00000-0  14701-2 0  9998,2 49758  53.2176 259.1154 0001890 117.0855 243.0330 15.08878097110573,6917.764,95.435,540.936,538.321,0.0
49758.0,STARLINK-3194,PAYLOAD,2023-12-02 21:24:52,15.0883661,0.0001572,53.216,255.2477,93.7718,266.3454,-3.6834e-05,-8.74e-06,0.0,0 STARLINK-3194,1 49758U 21115AL  23336.89227337 -.00000874  00000-0 -36834-4 0  9990,2 49758  53.2160 255.2477 0001572  93.7718 266.3454 15.08836610110701,6917.891,95.438,540.843,538.668,0.0
49758.0,STARLINK-3194,PAYLOAD,2023-12-03 02:11:02,15.08825383,0.0001536,53.2167,254.3537,107.0443,253.0717,-0.00035994,-6.01e-05,0.0,0 STARLINK-3194,1 49758U 21115AL  23337.09099593 -.00006010  00000-0 -35994-3 0  9997,2 49758  53.2167 254.3537 0001536 107.0443 253.0717 15.08825383111845,6917.925,95.438,540.853,538.727,0.0
49758.0,STARLINK-3194,PAYLOAD,2023-12-04 02:01:49,15.08832833,0.0001612,53.2171,249.8948,115.8921,244.2238,-0.0002539,-4.326e-05,0.0,0 STARLINK-3194,1 49758U 21115AL  23338.08460486 -.00004326  00000-0 -25390-3 0  9997,2 49758  53.2171 249.8948 0001612 115.8921 244.2238 15.08832833111992,6917.902,95.438,540.882,538.652,0.0
49758.0,STARLINK-3194,PAYLOAD,2023-12-04 17:55:41,15.08833788,0.0001517,53.2164,246.9191,133.0793,227.0326,0.00030715,4.603e-05,0.0,0 STARLINK-3194,1 49758U 21115AL  23338.74700904  .00004603  00000-0  30715-3 0  9995,2 49758  53.2164 246.9191 0001517 133.0793 227.0326 15.08833788110980,6917.899,95.438,540.814,538.715,0.0
49758.0,STARLINK-3194,PAYLOAD,2023-12-05 00:17:13,15.08844264,0.0001278,53.216,245.7359,104.9107,255.2027,0.00042766,6.526e-05,0.0,0 STARLINK-3194,1 49758U 21115AL  23339.01196528  .00006526  00000-0  42766-3 0  9992,2 49758  53.2160 245.7359 0001278 104.9107 255.2027 15.08844264112130,6917.867,95.437,540.616,538.848,0.0
49758.0,STARLINK-3194,PAYLOAD,2023-12-05 17:46:28,15.08848199,0.0001367,53.2167,242.4685,72.2964,287.8177,0.00035375,5.348e-05,0.0,0 STARLINK-3194,1 49758U 21115AL  23339.74060405  .00005348  00000-0  35375-3 0  9995,2 49758  53.2167 242.4685 0001367  72.2964 287.8177 15.08848199111137,6917.855,95.437,540.666,538.775,0.0
49758.0,STARLINK-3194,PAYLOAD,2023-12-06 03:18:46,15.08850816,0.0001355,53.2165,240.6839,75.1779,284.9363,0.00031626,4.75e-05,0.0,0 STARLINK-3194,1 49758U 21115AL  23340.13804065  .00004750  00000-0  31626-3 0  9999,2 49758  53.2165 240.6839 0001355  75.1779 284.9363 15.08850816112303,6917.847,95.437,540.65,538.775,0.0
49758.0,STARLINK-3194,PAYLOAD,2023-12-06 22:23:24,15.08845365,0.0001308,53.2147,237.1105,110.1856,249.9277,-7.6784e-05,-1.51e-05,0.0,0 STARLINK-3194,1 49758U 21115AL  23340.93291785 -.00001510  00000-0 -76784-4 0  9994,2 49758  53.2147 237.1105 0001308 110.1856 249.9277 15.08845365111312,6917.864,95.437,540.634,538.824,0.0
49758.0,STARLINK-3194,PAYLOAD,2023-12-06 23:58:47,15.08846455,0.0001593,53.2149,236.8098,126.7074,233.4065,-9.6298e-05,-1.821e-05,0.0,0 STARLINK-3194,1 49758U 21115AL  23340.99915674 -.00001821  00000-0 -96298-4 0  9997,2 49758  53.2149 236.8098 0001593 126.7074 233.4065 15.08846455112430,6917.861,95.437,540.828,538.624,0.0
49758.0,STARLINK-3194,PAYLOAD,2023-12-08 03:00:20,15.0885586,0.0001507,53.2159,231.7566,114.6729,245.4421,-0.00023949,-4.099e-05,0.0,0 STARLINK-3194,1 49758U 21115AL  23342.12523555 -.00004099  00000-0 -23949-3 0  9999,2 49758  53.2159 231.7566 0001507 114.6729 245.4421 15.08855860112601,6917.832,95.437,540.739,538.654,0.0
49758.0,STARLINK-3194,PAYLOAD,2023-12-08 17:18:49,15.08837517,0.0001317,53.2159,229.0807,103.3731,256.7408,7.5763e-05,9.18e-06,0.0,0 STARLINK-3194,1 49758U 21115AL  23342.72140222  .00000918  00000-0  75763-4 0  9997,2 49758  53.2159 229.0807 0001317 103.3731 256.7408 15.08837517112694,6917.888,95.438,540.664,538.842,0.0
49758.0,STARLINK-3194,PAYLOAD,2023-12-09 15:34:13,15.08838775,0.0001181,53.2168,224.9169,98.0429,262.0698,7.1724e-05,8.54e-06,0.0,0 STARLINK-3194,1 49758U 21115AL  23343.64876306  .00000854  00000-0  71724-4 0  9990,2 49758  53.2168 224.9169 0001181  98.0429 262.0698 15.08838775111723,6917.884,95.438,540.566,538.932,0.0
